SL-16 R/B               
1 26070U 00006B   21319.33367935  .00000163  00000-0  10773-3 0  9997
2 26070  70.9997 169.1825 0014776  54.9109 305.3397 14.15474309125616
MTI                     
1 26102U 00014A   21319.50251014  .00017426  00000-0  16824-3 0  9994
2 26102  97.4584 234.4568 0007619 106.6539 253.5572 15.66506837204940
TITAN 4B R/B            
1 26474U 00047B   21319.63373016  .00000250  00000-0  32267-4 0  9990
2 26474  67.9931  94.5565 0057157 344.9092  15.0342 14.96290768156458
ENVISAT                 
1 27386U 02009A   21319.45288826  .00000062  00000-0  33988-4 0  9999
2 27386  98.1624 305.8946 0001296  90.6573  63.3014 14.38054524 32706
IDEFIX & ARIANE 42P R/B 
1 27422U 02021B   21319.59458378  .00000033  00000-0  29567-4 0  9996
2 27422  98.4220 267.3461 0012746 142.7426 217.4643 14.29341489 18909
AQUA                    
1 27424U 02022A   21319.61788219  .00000174  00000-0  48597-4 0  9992
2 27424  98.2240 258.8605 0001366 112.2836  60.5864 14.57107346 39042
CZ-4B R/B               
1 27432U 02024C   21319.51815862 -.00000005  00000-0  21356-4 0  9995
2 27432  99.0799 336.4098 0050780 159.5772   2.6863 14.14117816  6580
MIDORI II (ADEOS-II)    
1 27597U 02056A   21319.56272120  .00000071  00000-0  46619-4 0  9992
2 27597  98.5812 261.9552 0000363  21.3592 338.7604 14.27531221985448
H-2A R/B                
1 27601U 02056E   21319.61965921 -.00000018  00000-0  80812-5 0  9998
2 27601  98.1832 333.4064 0072160 178.2189 291.8683 14.32023546988567
CZ-4B R/B               
1 28059U 03049C   21319.51394191  .00000070  00000-0  28635-4 0  9994
2 28059  98.5016 248.1941 0050172   2.4380 357.7050 14.52684763957752
CZ-2C R/B               
1 28222U 04012C   21319.54972542  .00001265  00000-0  77405-4 0  9998
2 28222  97.7474 292.0530 0047799  65.4310   1.7871 15.11217685963911
SL-16 R/B               
1 28353U 04021B   21319.32667409  .00000171  00000-0  11444-3 0  9997
2 28353  71.0009 297.3787 0007480 271.9007  88.1259 14.14256399900071
CZ-4B R/B               
1 28415U 04035C   21319.60357126  .00000719  00000-0  50441-4 0  9993
2 28415  97.5473 359.4550 0051861  32.5678 327.8731 15.07302960941378
CZ-2C R/B               
1 28480U 04046B   21319.59455082 -.00000006  00000-0  12146-4 0  9995
2 28480  98.0528 319.4216 0142703 135.5827 335.9952 14.25768611883961
ARIANE 5 R/B            
1 28499U 04049H   21319.58960939  .00000091  00000-0  18421-4 0  9994
2 28499  98.0822  69.7210 0092853  45.9933 325.0284 14.80187331912448
CZ-2D R/B               
1 28738U 05024B   21319.41209863  .00000702  00000-0  43640-4 0  9998
2 28738  97.3574 330.0912 0011282 191.5835 168.5138 15.12686310899381
SUZAKU (ASTRO-EII)      
1 28773U 05025A   21319.54131304  .00002029  00000-0  90305-4 0  9990
2 28773  31.3809 257.8383 0004300   2.1835 357.8831 15.19005355902454
ALOS (DAICHI)           
1 28931U 06002A   21319.51490409  .00000276  00000-0  62550-4 0  9996
2 28931  97.9072 287.7939 0000375  74.2038 285.9187 14.62921167843142
H-2A R/B                
1 28932U 06002B   21319.34425753  .00000617  00000-0  61586-4 0  9995
2 28932  98.3185 344.9531 0089120  73.9152 297.4180 14.92767502858090
AKARI (ASTRO-F)         
1 28939U 06005A   21319.59565672  .00005601  00000-0  13222-3 0  9998
2 28939  98.2289   1.3077 0082057 314.0980  45.3529 15.38890169860132
RESURS-DK 1             
1 29228U 06021A   21319.44866092  .00000259  00000-0  26651-4 0  9997
2 29228  69.9349 314.1879 0004139 346.6705  13.4346 15.02805199850224
GENESIS 1               
1 29252U 06029A   21319.59977372  .00001397  00000-0  73747-4 0  9994
2 29252  64.5224  52.3684 0056147 295.4441  64.0879 15.19073869846477
CZ-4B R/B               
1 29507U 06046C   21319.34163589  .00000369  00000-0  33073-4 0  9992
2 29507  97.7628 345.0770 0045049 227.7751 131.9647 15.01228829822745
CZ-2C R/B               
1 31114U 07010B   21319.53966780 -.00000056  00000-0 -74532-5 0  9997
2 31114  98.2301 142.6343 0059273 201.0716 158.8019 14.19377332756214
COSMO-SKYMED 1          
1 31598U 07023A   21319.52853515 -.00000117  00000-0 -81589-5 0  9995
2 31598  97.8848 141.3094 0001522  86.2145 273.9248 14.82153474781279
GENESIS 2               
1 31789U 07028A   21319.59182995  .00001108  00000-0  63842-4 0  9996
2 31789  64.4924  95.0712 0023538   0.4178 359.6960 15.18099053793428
COSMOS 2428             
1 31792U 07029A   21319.26392056  .00000301  00000-0  18913-3 0  9998
2 31792  70.9200 269.2154 0007724 354.3480   5.7552 14.12397671741601
SL-16 R/B               
1 31793U 07029B   21319.55513477 -.00000079  00000-0 -16272-4 0  9994
2 31793  70.9772 242.2031 0002799 266.1736 266.1700 14.14457527742611
KORONAS-FOTON           
1 33504U 09003A   21319.56361662  .00000715  00000-0  35249-4 0  9998
2 33504  82.4428  69.0786 0017441 294.6590  65.2826 15.16243587705545
H-2A R/B                
1 38341U 12025E   21319.26507165  .00000267  00000-0  38569-4 0  9997
2 38341  98.5218 155.0804 0055598  16.3267 343.9720 14.84324695513872
CUSAT 2 & FALCON 9 R/B  
1 39271U 13055G   21319.55689619  .00006645  00000-0  15023-3 0  9996
2 39271  80.9644  69.0305 0558209  50.4931 314.4255 14.55659320425598
CZ-2C R/B               
1 39364U 13059B   21319.26011889  .00002013  00000-0  72628-4 0  9999
2 39364  97.1945  14.9220 0046214  18.4896 341.8011 15.28663879447461
SL-4 R/B                
1 39679U 14021B   21319.17512694  .00000785  00000-0  54809-4 0  9993
2 39679  51.6166 232.6699 0168267 294.1329  64.2125 15.07389972416785
ALOS-2                  
1 39766U 14029A   21319.54979476  .00000329  00000-0  50885-4 0  9998
2 39766  97.9229  54.7485 0001526  93.2000 266.9384 14.79475199404004
CZ-2C R/B               
1 40306U 14071B   21319.37688393  .00007863  00000-0  13711-3 0  9999
2 40306  97.3914 280.3900 0015499  85.1893 275.1128 15.50874673393627
SL-27 R/B               
1 40354U 14084B   21319.58786404  .00001889  00000-0  44948-4 0  9990
2 40354  74.7390  39.2944 0037189 325.9249  33.9576 15.41687306387621
YAOGAN 29               
1 41038U 15069A   21319.45974759  .00000073  00000-0  16502-4 0  9991
2 41038  98.0484 313.8418 0002021  60.0480 300.0930 14.80541868322627
ASTRO-H (HITOMI)        
1 41337U 16012A   21319.40116958  .00000413  00000-0  26399-4 0  9999
2 41337  31.0063 337.8567 0012261 130.9104 229.2594 14.98952626314971
HXMT (HUIYAN)           
1 42758U 17034A   21319.47397949  .00000610  00000-0  50967-4 0  9997
2 42758  43.0165  84.0430 0008250  14.8310 102.8627 15.09442078243834
CZ-2C R/B               
1 43521U 18054D   21319.45951537  .00001409  00000-0  76645-4 0  9994
2 43521  35.1532 238.1640 0081230 350.8814   9.0424 15.11859689187269
AEOLUS                  
1 43600U 18066A   21319.58905773  .00040239  00000-0  15818-3 0  9998
2 43600  96.7138 324.0480 0010724  89.5778 270.6724 15.86728684187210
SAOCOM 1A               
1 43641U 18076A   21319.53685709  .00000069  00000-0  15282-4 0  9996
2 43641  97.8863 144.3043 0001477  81.2451 278.8925 14.82158994168041
SAOCOM 1B               
1 46265U 20059A   21319.56801636  .00000077  00000-0  16235-4 0  9995
2 46265  97.8857 143.4055 0001562  80.0372 280.1026 14.82160027 65444
2020-063G               
1 46395U 20063G   21319.30053707  .00116130  17478-4  15860-3 0  9995
2 46395  50.1967 231.5248 0004965 102.0210 258.1339 16.05939704 69349
SL-4 R/B                
1 47547U 21008B   21319.57000464  .00130937  50886-5  35888-3 0  9990
2 47547  67.1279 297.2061 0278177 183.1208 176.8238 15.52311215 43539
TIANHE                  
1 48274U 21035A   21318.35652168  .00007879  00000-0  95479-4 0  9996
2 48274  41.4686  87.5382 0005215 358.3263  27.3279 15.60863369 31182
